{
  "type": "FeatureCollection",
  "features": [
    {
      "type": "Feature",
      "properties": {
        "norad_id": 33412,
        "name": "COSMO-SKYMED 3",
        "group": "resource",
        "lat": 75.93913744051663,
        "lon": 42.240455793991906,
        "alt_km": 545.3700862169817,
        "timestamp": "2025-12-04T13:52:00.104731+00:00",
        "meta_object_name": "COSMO-SKYMED 3",
        "meta_object_id": "2008-054A",
        "meta_epoch": "2025-12-04T07:02:01.723200",
        "meta_mean_motion": 15.05228782,
        "meta_eccentricity": 0.0015514,
        "meta_inclination": 97.8463,
        "meta_ra_of_asc_node": 188.543,
        "meta_arg_of_pericenter": 202.2011,
        "meta_mean_anomaly": 157.8545,
        "meta_ephemeris_type": 0,
        "meta_classification_type": "U",
        "meta_norad_cat_id": 33412,
        "meta_element_set_no": 999,
        "meta_rev_at_epoch": 92760,
        "meta_bstar": 0.00071894076,
        "meta_mean_motion_dot": 0.00010235,
        "meta_mean_motion_ddot": 0,
        "tle_line1": "1 33412U 08054A   25338.29307550  .00010235  00000+0  71894-3 0  9994",
        "tle_line2": "2 33412  97.8463 188.5430 0015514 202.2011 157.8545 15.05228782927604"
      },
      "geometry": {
        "type": "Point",
        "coordinates": [
          42.240455793991906,
          75.93913744051663
        ]
      }
    },
    {
      "type": "Feature",
      "properties": {
        "norad_id": 33446,
        "name": "YAOGAN-4",
        "group": "resource",
        "lat": 26.838144744115535,
        "lon": -95.27976362584415,
        "alt_km": 611.9423142663436,
        "timestamp": "2025-12-04T13:52:00.104741+00:00",
        "meta_object_name": "YAOGAN-4",
        "meta_object_id": "2008-061A",
        "meta_epoch": "2025-12-04T05:38:47.404896",
        "meta_mean_motion": 14.82640914,
        "meta_eccentricity": 0.00143182,
        "meta_inclination": 97.9169,
        "meta_ra_of_asc_node": 268.4187,
        "meta_arg_of_pericenter": 351.7897,
        "meta_mean_anomaly": 8.3079,
        "meta_ephemeris_type": 0,
        "meta_classification_type": "U",
        "meta_norad_cat_id": 33446,
        "meta_element_set_no": 999,
        "meta_rev_at_epoch": 91677,
        "meta_bstar": 0.00043161091,
        "meta_mean_motion_dot": 3.43e-05,
        "meta_mean_motion_ddot": 0,
        "tle_line1": "1 33446U 08061A   25338.23527089  .00003430  00000+0  43161-3 0  9999",
        "tle_line2": "2 33446  97.9169 268.4187 0014318 351.7897   8.3079 14.82640914916772"
      },
      "geometry": {
        "type": "Point",
        "coordinates": [
          -95.27976362584415,
          26.838144744115535
        ]
      }
    },
    {
      "type": "Feature",
      "properties": {
        "norad_id": 33492,
        "name": "GOSAT (IBUKI)",
        "group": "resource",
        "lat": 17.091948853544476,
        "lon": -90.20238007567194,
        "alt_km": 669.4593531577393,
        "timestamp": "2025-12-04T13:52:00.104751+00:00",
        "meta_object_name": "GOSAT (IBUKI)",
        "meta_object_id": "2009-002A",
        "meta_epoch": "2025-12-04T04:56:46.868064",
        "meta_mean_motion": 14.67546755,
        "meta_eccentricity": 9.86e-05,
        "meta_inclination": 98.0772,
        "meta_ra_of_asc_node": 86.9285,
        "meta_arg_of_pericenter": 71.9594,
        "meta_mean_anomaly": 288.1718,
        "meta_ephemeris_type": 0,
        "meta_classification_type": "U",
        "meta_norad_cat_id": 33492,
        "meta_element_set_no": 999,
        "meta_rev_at_epoch": 90286,
        "meta_bstar": 0.0003326083,
        "meta_mean_motion_dot": 1.839e-05,
        "meta_mean_motion_ddot": 0,
        "tle_line1": "1 33492U 09002A   25338.20609801  .00001839  00000+0  33261-3 0  9997",
        "tle_line2": "2 33492  98.0772  86.9285 0000986  71.9594 288.1718 14.67546755902862"
      },
      "geometry": {
        "type": "Point",
        "coordinates": [
          -90.20238007567194,
          17.091948853544476
        ]
      }
    },
    {
      "type": "Feature",
      "properties": {
        "norad_id": 35681,
        "name": "DEIMOS-1",
        "group": "resource",
        "lat": 23.225669920876886,
        "lon": 136.2266284964931,
        "alt_km": 644.3278153883666,
        "timestamp": "2025-12-04T13:52:00.104763+00:00",
        "meta_object_name": "DEIMOS-1",
        "meta_object_id": "2009-041A",
        "meta_epoch": "2025-12-04T08:52:34.162176",
        "meta_mean_motion": 14.7493322,
        "meta_eccentricity": 0.0002689,
        "meta_inclination": 97.7146,
        "meta_ra_of_asc_node": 139.3633,
        "meta_arg_of_pericenter": 95.19,
        "meta_mean_anomaly": 264.9616,
        "meta_ephemeris_type": 0,
        "meta_classification_type": "U",
        "meta_norad_cat_id": 35681,
        "meta_element_set_no": 999,
        "meta_rev_at_epoch": 87816,
        "meta_bstar": 0.0002145842,
        "meta_mean_motion_dot": 1.394e-05,
        "meta_mean_motion_ddot": 0,
        "tle_line1": "1 35681U 09041A   25338.36983984  .00001394  00000+0  21458-3 0  9997",
        "tle_line2": "2 35681  97.7146 139.3633 0002689  95.1900 264.9616 14.74933220878165"
      },
      "geometry": {
        "type": "Point",
        "coordinates": [
          136.2266284964931,
          23.225669920876886
        ]
      }
    },
    {
      "type": "Feature",
      "properties": {
        "norad_id": 35682,
        "name": "DUBAISAT-1",
        "group": "resource",
        "lat": -31.043840184577196,
        "lon": 114.22059103237925,
        "alt_km": 645.6746147672211,
        "timestamp": "2025-12-04T13:52:00.104774+00:00",
        "meta_object_name": "DUBAISAT-1",
        "meta_object_id": "2009-041B",
        "meta_epoch": "2025-12-04T05:51:55.938816",
        "meta_mean_motion": 14.74566355,
        "meta_eccentricity": 0.00100947,
        "meta_inclination": 97.9785,
        "meta_ra_of_asc_node": 109.0497,
        "meta_arg_of_pericenter": 343.6323,
        "meta_mean_anomaly": 16.4559,
        "meta_ephemeris_type": 0,
        "meta_classification_type": "U",
        "meta_norad_cat_id": 35682,
        "meta_element_set_no": 999,
        "meta_rev_at_epoch": 87636,
        "meta_bstar": 0.0003672791,
        "meta_mean_motion_dot": 2.397e-05,
        "meta_mean_motion_ddot": 0,
        "tle_line1": "1 35682U 09041B   25338.24439744  .00002397  00000+0  36728-3 0  9995",
        "tle_line2": "2 35682  97.9785 109.0497 0010094 343.6323  16.4559 14.74566355876365"
      },
      "geometry": {
        "type": "Point",
        "coordinates": [
          114.22059103237925,
          -31.043840184577196
        ]
      }
    },
    {
      "type": "Feature",
      "properties": {
        "norad_id": 35931,
        "name": "OCEANSAT-2",
        "group": "resource",
        "lat": -5.926108272024135,
        "lon": 159.1459815321215,
        "alt_km": 904.6745195263902,
        "timestamp": "2025-12-04T13:52:00.104785+00:00",
        "meta_object_name": "OCEANSAT-2",
        "meta_object_id": "2009-051A",
        "meta_epoch": "2025-12-04T07:50:09.324384",
        "meta_mean_motion": 13.99626592,
        "meta_eccentricity": 0.00165557,
        "meta_inclination": 98.223,
        "meta_ra_of_asc_node": 339.7802,
        "meta_arg_of_pericenter": 66.9223,
        "meta_mean_anomaly": 293.3687,
        "meta_ephemeris_type": 0,
        "meta_classification_type": "U",
        "meta_norad_cat_id": 35931,
        "meta_element_set_no": 999,
        "meta_rev_at_epoch": 85207,
        "meta_bstar": -6.203793e-05,
        "meta_mean_motion_dot": -1.28e-06,
        "meta_mean_motion_ddot": 0,
        "tle_line1": "1 35931U 09051A   25338.32649681 -.00000128  00000+0 -62038-4 0  9991",
        "tle_line2": "2 35931  98.2230 339.7802 0016555  66.9223 293.3687 13.99626592852071"
      },
      "geometry": {
        "type": "Point",
        "coordinates": [
          159.1459815321215,
          -5.926108272024135
        ]
      }
    },
    {
      "type": "Feature",
      "properties": {
        "norad_id": 35946,
        "name": "WORLDVIEW-2 (WV-2)",
        "group": "resource",
        "lat": -81.48159604871928,
        "lon": 134.46832464298805,
        "alt_km": 777.4894550005129,
        "timestamp": "2025-12-04T13:52:00.104795+00:00",
        "meta_object_name": "WORLDVIEW-2 (WV-2)",
        "meta_object_id": "2009-055A",
        "meta_epoch": "2025-12-04T07:36:00.071136",
        "meta_mean_motion": 14.37646986,
        "meta_eccentricity": 0.00054307,
        "meta_inclination": 98.477,
        "meta_ra_of_asc_node": 49.5187,
        "meta_arg_of_pericenter": 87.1094,
        "meta_mean_anomaly": 273.0714,
        "meta_ephemeris_type": 0,
        "meta_classification_type": "U",
        "meta_norad_cat_id": 35946,
        "meta_element_set_no": 999,
        "meta_rev_at_epoch": 84764,
        "meta_bstar": 0.00015506993,
        "meta_mean_motion_dot": 4.22e-06,
        "meta_mean_motion_ddot": 0,
        "tle_line1": "1 35946U 09055A   25338.31666749  .00000422  00000+0  15507-3 0  9997",
        "tle_line2": "2 35946  98.4770  49.5187 0005430  87.1094 273.0714 14.37646986847646"
      },
      "geometry": {
        "type": "Point",
        "coordinates": [
          134.46832464298805,
          -81.48159604871928
        ]
      }
    }
  ]
}